{"type": "FeatureCollection", "features": [ {"type": "Feature", "properties": {"norad_id": 34141, "name": "COSMOS 2251 DEB", "group": "cosmos-2251-debris", "lat": -20.72353156012217, "lon": 6.806663113689503, "alt_km": 748.1038959407488, "timestamp": "2025-12-21T03:56:51.226698+00:00", "meta": {"OBJECT_NAME": "COSMOS 2251 DEB", "OBJECT_ID": "1993-036LN", "EPOCH": "2025-12-20T12:10:11.273088", "MEAN_MOTION": 14.49312266, "ECCENTRICITY": 0.00465751, "INCLINATION": 74.0109, "RA_OF_ASC_NODE": 14.2689, "ARG_OF_PERICENTER": 97.7438, "MEAN_ANOMALY": 52.5935, "EPHEMERIS_TYPE": 0, "CLASSIFICATION_TYPE": "U", "NORAD_CAT_ID": 34141, "ELEMENT_SET_NO": 999, "REV_AT_EPOCH": 87806, "BSTAR": 0.0008759088, "MEAN_MOTION_DOT": 3.364e-05, "MEAN_MOTION_DDOT": 0}, "tle": {"line1": "1 34141U 93036LN  25354.50707492  .00003364  00000+0  87591-3 0  9995", "line2": "2 34141  74.0109  14.2689 0046575  97.7438  52.5935 14.49312266878067"}}, "geometry": {"type": "Point", "coordinates": [6.806663113689503, -20.72353156012217]}}, {"type": "Feature", "properties": {"norad_id": 34270, "name": "COSMOS 2251 DEB", "group": "cosmos-2251-debris", "lat": 54.156165253249476, "lon": -46.2235661975268, "alt_km": 639.7892807134713, "timestamp": "2025-12-21T03:56:51.226707+00:00", "meta": {"OBJECT_NAME": "COSMOS 2251 DEB", "OBJECT_ID": "1993-036LQ", "EPOCH": "2025-12-20T19:29:39.885216", "MEAN_MOTION": 14.65225926, "ECCENTRICITY": 0.0047876, "INCLINATION": 74.0117, "RA_OF_ASC_NODE": 291.0704, "ARG_OF_PERICENTER": 81.4436, "MEAN_ANOMALY": 279.2153, "EPHEMERIS_TYPE": 0, "CLASSIFICATION_TYPE": "U", "NORAD_CAT_ID": 34270, "ELEMENT_SET_NO": 999, "REV_AT_EPOCH": 89214, "BSTAR": 0.00046514, "MEAN_MOTION_DOT": 2.517e-05, "MEAN_MOTION_DDOT": 0}, "tle": {"line1": "1 34270U 93036LQ  25354.81226719  .00002517  00000+0  46514-3 0  9999", "line2": "2 34270  74.0117 291.0704 0047876  81.4436 279.2153 14.65225926892144"}}, "geometry": {"type": "Point", "coordinates": [-46.2235661975268, 54.156165253249476]}}, {"type": "Feature", "properties": {"norad_id": 34271, "name": "COSMOS 2251 DEB", "group": "cosmos-2251-debris", "lat": 5.0371229230374714, "lon": 1.5095996616157985, "alt_km": 653.9165135435151, "timestamp": "2025-12-21T03:56:51.226717+00:00", "meta": {"OBJECT_NAME": "COSMOS 2251 DEB", "OBJECT_ID": "1993-036LR", "EPOCH": "2025-12-20T06:44:08.467584", "MEAN_MOTION": 14.70908358, "ECCENTRICITY": 0.00184083, "INCLINATION": 74.019, "RA_OF_ASC_NODE": 184.6741, "ARG_OF_PERICENTER": 238.1631, "MEAN_ANOMALY": 298.4774, "EPHEMERIS_TYPE": 0, "CLASSIFICATION_TYPE": "U", "NORAD_CAT_ID": 34271, "ELEMENT_SET_NO": 999, "REV_AT_EPOCH": 88345, "BSTAR": 0.0011954508, "MEAN_MOTION_DOT": 7.314e-05, "MEAN_MOTION_DDOT": 0}, "tle": {"line1": "1 34271U 93036LR  25354.28065356  .00007314  00000+0  11955-2 0  9999", "line2": "2 34271  74.0190 184.6741 0018408 238.1631 298.4774 14.70908358883450"}}, "geometry": {"type": "Point", "coordinates": [1.5095996616157985, 5.0371229230374714]}}, {"type": "Feature", "properties": {"norad_id": 34273, "name": "COSMOS 2251 DEB", "group": "cosmos-2251-debris", "lat": -72.98990043694207, "lon": -39.341304925856335, "alt_km": 692.1692202408403, "timestamp": "2025-12-21T03:56:51.226726+00:00", "meta": {"OBJECT_NAME": "COSMOS 2251 DEB", "OBJECT_ID": "1993-036LT", "EPOCH": "2025-12-20T05:31:38.097984", "MEAN_MOTION": 14.61288148, "ECCENTRICITY": 0.0013706, "INCLINATION": 74.0364, "RA_OF_ASC_NODE": 73.1054, "ARG_OF_PERICENTER": 199.0057, "MEAN_ANOMALY": 192.5449, "EPHEMERIS_TYPE": 0, "CLASSIFICATION_TYPE": "U", "NORAD_CAT_ID": 34273, "ELEMENT_SET_NO": 999, "REV_AT_EPOCH": 88731, "BSTAR": 0.00058813, "MEAN_MOTION_DOT": 2.878e-05, "MEAN_MOTION_DDOT": 0}, "tle": {"line1": "1 34273U 93036LT  25354.23030206  .00002878  00000+0  58813-3 0  9997", "line2": "2 34273  74.0364  73.1054 0013706 199.0057 192.5449 14.61288148887317"}}, "geometry": {"type": "Point", "coordinates": [-39.341304925856335, -72.98990043694207]}}, {"type": "Feature", "properties": {"norad_id": 34274, "name": "COSMOS 2251 DEB", "group": "cosmos-2251-debris", "lat": 73.50362198368417, "lon": 156.72077988144883, "alt_km": 674.7198350764793, "timestamp": "2025-12-21T03:56:51.226736+00:00", "meta": {"OBJECT_NAME": "COSMOS 2251 DEB", "OBJECT_ID": "1993-036LU", "EPOCH": "2025-12-20T15:06:03.163392", "MEAN_MOTION": 14.64865123, "ECCENTRICITY": 0.0021612, "INCLINATION": 74.004, "RA_OF_ASC_NODE": 53.3668, "ARG_OF_PERICENTER": 202.9402, "MEAN_ANOMALY": 309.6942, "EPHEMERIS_TYPE": 0, "CLASSIFICATION_TYPE": "U", "NORAD_CAT_ID": 34274, "ELEMENT_SET_NO": 999, "REV_AT_EPOCH": 88791, "BSTAR": 0.00063321, "MEAN_MOTION_DOT": 3.365e-05, "MEAN_MOTION_DDOT": 0}, "tle": {"line1": "1 34274U 93036LU  25354.62920328  .00003365  00000+0  63321-3 0  9996", "line2": "2 34274  74.0040  53.3668 0021612 202.9402 309.6942 14.64865123887915"}}, "geometry": {"type": "Point", "coordinates": [156.72077988144883, 73.50362198368417]}}, {"type": "Feature", "properties": {"norad_id": 34276, "name": "COSMOS 2251 DEB", "group": "cosmos-2251-debris", "lat": 17.10489128182387, "lon": -115.75406531528685, "alt_km": 692.6345426228645, "timestamp": "2025-12-21T03:56:51.226745+00:00", "meta": {"OBJECT_NAME": "COSMOS 2251 DEB", "OBJECT_ID": "1993-036LW", "EPOCH": "2025-12-20T12:25:42.858624", "MEAN_MOTION": 14.57275704, "ECCENTRICITY": 0.00223343, "INCLINATION": 74.0237, "RA_OF_ASC_NODE": 70.5327, "ARG_OF_PERICENTER": 216.6141, "MEAN_ANOMALY": 154.7368, "EPHEMERIS_TYPE": 0, "CLASSIFICATION_TYPE": "U", "NORAD_CAT_ID": 34276, "ELEMENT_SET_NO": 999, "REV_AT_EPOCH": 88706, "BSTAR": 0.00049400404, "MEAN_MOTION_DOT": 2.213e-05, "MEAN_MOTION_DDOT": 0}, "tle": {"line1": "1 34276U 93036LW  25354.51785716  .00002213  00000+0  49400-3 0  9999", "line2": "2 34276  74.0237  70.5327 0022334 216.6141 154.7368 14.57275704887061"}}, "geometry": {"type": "Point", "coordinates": [-115.75406531528685, 17.10489128182387]}}, {"type": "Feature", "properties": {"norad_id": 34297, "name": "COSMOS 2251 DEB", "group": "cosmos-2251-debris", "lat": -74.02494661216706, "lon": 176.29541476647424, "alt_km": 771.617316963655, "timestamp": "2025-12-21T03:56:51.226754+00:00", "meta": {"OBJECT_NAME": "COSMOS 2251 DEB", "OBJECT_ID": "1993-036MT", "EPOCH": "2025-12-20T12:28:43.348224", "MEAN_MOTION": 14.36635417, "ECCENTRICITY": 0.00175785, "INCLINATION": 74.0488, "RA_OF_ASC_NODE": 269.9461, "ARG_OF_PERICENTER": 337.3921, "MEAN_ANOMALY": 199.9888, "EPHEMERIS_TYPE": 0, "CLASSIFICATION_TYPE": "U", "NORAD_CAT_ID": 34297, "ELEMENT_SET_NO": 999, "REV_AT_EPOCH": 88176, "BSTAR": 9.9683739e-05, "MEAN_MOTION_DOT": 2.68e-06, "MEAN_MOTION_DDOT": 0}, "tle": {"line1": "1 34297U 93036MT  25354.51994616  .00000268  00000+0  99684-4 0  9991", "line2": "2 34297  74.0488 269.9461 0017578 337.3921 199.9888 14.36635417881763"}}, "geometry": {"type": "Point", "coordinates": [176.29541476647424, -74.02494661216706]}}, {"type": "Feature", "properties": {"norad_id": 34299, "name": "COSMOS 2251 DEB", "group": "cosmos-2251-debris", "lat": -72.86898539754382, "lon": -113.84682444036578, "alt_km": 298.4404438877955, "timestamp": "2025-12-21T03:56:51.226763+00:00", "meta": {"OBJECT_NAME": "COSMOS 2251 DEB", "OBJECT_ID": "1993-036MV", "EPOCH": "2025-12-20T14:45:08.199936", "MEAN_MOTION": 15.93932603, "ECCENTRICITY": 0.0011077, "INCLINATION": 73.9685, "RA_OF_ASC_NODE": 316.3411, "ARG_OF_PERICENTER": 95.9955, "MEAN_ANOMALY": 264.2543, "EPHEMERIS_TYPE": 0, "CLASSIFICATION_TYPE": "U", "NORAD_CAT_ID": 34299, "ELEMENT_SET_NO": 999, "REV_AT_EPOCH": 89135, "BSTAR": 0.005837, "MEAN_MOTION_DOT": 0.02072373, "MEAN_MOTION_DDOT": 0.0026109}, "tle": {"line1": "1 34299U 93036MV  25354.61467824  .02072373  26109-2  58370-2 0  9994", "line2": "2 34299  73.9685 316.3411 0011077  95.9955 264.2543 15.93932603891357"}}, "geometry": {"type": "Point", "coordinates": [-113.84682444036578, -72.86898539754382]}}, {"type": "Feature", "properties": {"norad_id": 34301, "name": "COSMOS 2251 DEB", "group": "cosmos-2251-debris", "lat": -50.78662902044346, "lon": -9.465074713379318, "alt_km": 613.5809091187666, "timestamp": "2025-12-21T03:56:51.226772+00:00", "meta": {"OBJECT_NAME": "COSMOS 2251 DEB", "OBJECT_ID": "1993-036MX", "EPOCH": "2025-12-20T14:26:15.420768", "MEAN_MOTION": 14.84895685, "ECCENTRICITY": 0.001056, "INCLINATION": 74.0049, "RA_OF_ASC_NODE": 151.0723, "ARG_OF_PERICENTER": 212.9737, "MEAN_ANOMALY": 252.7307, "EPHEMERIS_TYPE": 0, "CLASSIFICATION_TYPE": "U", "NORAD_CAT_ID": 34301, "ELEMENT_SET_NO": 999, "REV_AT_EPOCH": 88517, "BSTAR": 0.0019998, "MEAN_MOTION_DOT": 0.00017041, "MEAN_MOTION_DDOT": 0}, "tle": {"line1": "1 34301U 93036MX  25354.60156737  .00017041  00000+0  19998-2 0  9996", "line2": "2 34301  74.0049 151.0723 0010560 212.9737 252.7307 14.84895685885172"}}, "geometry": {"type": "Point", "coordinates": [-9.465074713379318, -50.78662902044346]}}, {"type": "Feature", "properties": {"norad_id": 34302, "name": "COSMOS 2251 DEB", "group": "cosmos-2251-debris", "lat": 25.98115222266214, "lon": 116.10722488182165, "alt_km": 736.1174188372433, "timestamp": "2025-12-21T03:56:51.226782+00:00", "meta": {"OBJECT_NAME": "COSMOS 2251 DEB", "OBJECT_ID": "1993-036MY", "EPOCH": "2025-12-20T18:23:11.332032", "MEAN_MOTION": 14.39357934, "ECCENTRICITY": 0.0079235, "INCLINATION": 74.178, "RA_OF_ASC_NODE": 108.8928, "ARG_OF_PERICENTER": 321.884, "MEAN_ANOMALY": 161.0412, "EPHEMERIS_TYPE": 0, "CLASSIFICATION_TYPE": "U", "NORAD_CAT_ID": 34302, "ELEMENT_SET_NO": 999, "REV_AT_EPOCH": 87836, "BSTAR": 0.00040625, "MEAN_MOTION_DOT": 1.284e-05, "MEAN_MOTION_DDOT": 0}, "tle": {"line1": "1 34302U 93036MY  25354.76610338  .00001284  00000+0  40625-3 0  9990", "line2": "2 34302  74.1780 108.8928 0079235 321.8840 161.0412 14.39357934878364"}}, "geometry": {"type": "Point", "coordinates": [116.10722488182165, 25.98115222266214]}}]}